LEMUR-2-GREENBERG       
1 42837U 17042N   26068.46200528  .00019778  00000+0  72539-3 0  9997
2 42837  97.3781 249.8007 0009157   4.0119 356.1192 15.27971352473146
STARLINK-32302          
1 61621U 24191A   26068.25956639  .00000896  00000+0  42096-4 0  9997
2 61621  42.9981 156.6717 0001467 319.6331  40.4412 15.27558857 78225
